{"type": "FeatureCollection", "features": [ {"type": "Feature", "properties": {"norad_id": 35701, "name": "COSMOS 2251 DEB", "group": "cosmos-2251-debris", "lat": 21.8550327377849, "lon": 119.57176707130792, "alt_km": 747.5650238993285, "timestamp": "2025-12-10T11:33:53.780491+00:00", "meta": {"OBJECT_NAME": "COSMOS 2251 DEB", "OBJECT_ID": "1993-036APW", "EPOCH": "2025-12-06T05:57:57.623904", "MEAN_MOTION": 13.80843435, "ECCENTRICITY": 0.02897209, "INCLINATION": 74.0028, "RA_OF_ASC_NODE": 313.2955, "ARG_OF_PERICENTER": 164.0681, "MEAN_ANOMALY": 196.98, "EPHEMERIS_TYPE": 0, "CLASSIFICATION_TYPE": "U", "NORAD_CAT_ID": 35701, "ELEMENT_SET_NO": 999, "REV_AT_EPOCH": 62069, "BSTAR": 0.0021223911, "MEAN_MOTION_DOT": 3.05e-05, "MEAN_MOTION_DDOT": 0}, "tle": {"line1": "1 35701U 93036APW 25340.24858361  .00003050  00000+0  21224-2 0  9998", "line2": "2 35701  74.0028 313.2955 0289720 164.0681 196.9800 13.80843435620696"}}, "geometry": {"type": "Point", "coordinates": [119.57176707130792, 21.8550327377849]}}, {"type": "Feature", "properties": {"norad_id": 35703, "name": "COSMOS 2251 DEB", "group": "cosmos-2251-debris", "lat": 4.970387048417836, "lon": 48.71156541486373, "alt_km": 616.2813977324295, "timestamp": "2025-12-10T11:33:53.780500+00:00", "meta": {"OBJECT_NAME": "COSMOS 2251 DEB", "OBJECT_ID": "1993-036APY", "EPOCH": "2025-12-08T11:12:28.770624", "MEAN_MOTION": 14.90258753, "ECCENTRICITY": 0.00649106, "INCLINATION": 74.042, "RA_OF_ASC_NODE": 51.3159, "ARG_OF_PERICENTER": 122.6243, "MEAN_ANOMALY": 238.1226, "EPHEMERIS_TYPE": 0, "CLASSIFICATION_TYPE": "U", "NORAD_CAT_ID": 35703, "ELEMENT_SET_NO": 999, "REV_AT_EPOCH": 66552, "BSTAR": 0.00096315421, "MEAN_MOTION_DOT": 9.705e-05, "MEAN_MOTION_DDOT": 0}, "tle": {"line1": "1 35703U 93036APY 25342.46699966  .00009705  00000+0  96315-3 0  9997", "line2": "2 35703  74.0420  51.3159 0064910 122.6243 238.1226 14.90258753665523"}}, "geometry": {"type": "Point", "coordinates": [48.71156541486373, 4.970387048417836]}}, {"type": "Feature", "properties": {"norad_id": 35705, "name": "COSMOS 2251 DEB", "group": "cosmos-2251-debris", "lat": -60.93327149074302, "lon": 109.69000960000224, "alt_km": 683.7508411650397, "timestamp": "2025-12-10T11:33:53.780510+00:00", "meta": {"OBJECT_NAME": "COSMOS 2251 DEB", "OBJECT_ID": "1993-036AQA", "EPOCH": "2025-12-03T05:18:59.084352", "MEAN_MOTION": 14.71707631, "ECCENTRICITY": 0.0034156, "INCLINATION": 74.2742, "RA_OF_ASC_NODE": 154.0557, "ARG_OF_PERICENTER": 110.0272, "MEAN_ANOMALY": 250.4584, "EPHEMERIS_TYPE": 0, "CLASSIFICATION_TYPE": "U", "NORAD_CAT_ID": 35705, "ELEMENT_SET_NO": 999, "REV_AT_EPOCH": 85786, "BSTAR": 0.0035867, "MEAN_MOTION_DOT": 0.00022615, "MEAN_MOTION_DDOT": 0}, "tle": {"line1": "1 35705U 93036AQA 25337.22151718  .00022615  00000+0  35867-2 0  9994", "line2": "2 35705  74.2742 154.0557 0034156 110.0272 250.4584 14.71707631857866"}}, "geometry": {"type": "Point", "coordinates": [109.69000960000224, -60.93327149074302]}}, {"type": "Feature", "properties": {"norad_id": 35706, "name": "COSMOS 2251 DEB", "group": "cosmos-2251-debris", "lat": -22.740000551438982, "lon": 59.58232825030673, "alt_km": 1210.0333740054239, "timestamp": "2025-12-10T11:33:53.780520+00:00", "meta": {"OBJECT_NAME": "COSMOS 2251 DEB", "OBJECT_ID": "1993-036AQB", "EPOCH": "2025-12-07T23:55:20.458848", "MEAN_MOTION": 13.65907522, "ECCENTRICITY": 0.0341168, "INCLINATION": 73.8893, "RA_OF_ASC_NODE": 70.6438, "ARG_OF_PERICENTER": 121.3453, "MEAN_ANOMALY": 242.1528, "EPHEMERIS_TYPE": 0, "CLASSIFICATION_TYPE": "U", "NORAD_CAT_ID": 35706, "ELEMENT_SET_NO": 999, "REV_AT_EPOCH": 61997, "BSTAR": 0.0014535602, "MEAN_MOTION_DOT": 1.759e-05, "MEAN_MOTION_DDOT": 0}, "tle": {"line1": "1 35706U 93036AQB 25341.99676457  .00001759  00000+0  14536-2 0  9992", "line2": "2 35706  73.8893  70.6438 0341168 121.3453 242.1528 13.65907522619977"}}, "geometry": {"type": "Point", "coordinates": [59.58232825030673, -22.740000551438982]}}, {"type": "Feature", "properties": {"norad_id": 35711, "name": "COSMOS 2251 DEB", "group": "cosmos-2251-debris", "lat": -21.10098122948515, "lon": -141.5392286063452, "alt_km": 626.9528741549357, "timestamp": "2025-12-10T11:33:53.780530+00:00", "meta": {"OBJECT_NAME": "COSMOS 2251 DEB", "OBJECT_ID": "1993-036AQG", "EPOCH": "2025-12-07T22:58:27.397056", "MEAN_MOTION": 14.63780346, "ECCENTRICITY": 0.00852914, "INCLINATION": 74.0511, "RA_OF_ASC_NODE": 229.6371, "ARG_OF_PERICENTER": 331.7264, "MEAN_ANOMALY": 27.9286, "EPHEMERIS_TYPE": 0, "CLASSIFICATION_TYPE": "U", "NORAD_CAT_ID": 35711, "ELEMENT_SET_NO": 999, "REV_AT_EPOCH": 87701, "BSTAR": 0.00039815854, "MEAN_MOTION_DOT": 2.156e-05, "MEAN_MOTION_DDOT": 0}, "tle": {"line1": "1 35711U 93036AQG 25341.95726154  .00002156  00000+0  39816-3 0  9995", "line2": "2 35711  74.0511 229.6371 0085291 331.7264  27.9286 14.63780346877017"}}, "geometry": {"type": "Point", "coordinates": [-141.5392286063452, -21.10098122948515]}}, {"type": "Feature", "properties": {"norad_id": 35716, "name": "COSMOS 2251 DEB", "group": "cosmos-2251-debris", "lat": 73.90001900059336, "lon": -77.43578840931673, "alt_km": 643.4800118536459, "timestamp": "2025-12-10T11:33:53.780539+00:00", "meta": {"OBJECT_NAME": "COSMOS 2251 DEB", "OBJECT_ID": "1993-036AQM", "EPOCH": "2025-12-09T23:58:01.155936", "MEAN_MOTION": 14.60081673, "ECCENTRICITY": 0.0088606, "INCLINATION": 73.9926, "RA_OF_ASC_NODE": 199.4482, "ARG_OF_PERICENTER": 41.1107, "MEAN_ANOMALY": 27.4349, "EPHEMERIS_TYPE": 0, "CLASSIFICATION_TYPE": "U", "NORAD_CAT_ID": 35716, "ELEMENT_SET_NO": 999, "REV_AT_EPOCH": 87587, "BSTAR": 0.00016236, "MEAN_MOTION_DOT": 7.92e-06, "MEAN_MOTION_DDOT": 0}, "tle": {"line1": "1 35716U 93036AQM 25343.99862449  .00000792  00000+0  16236-3 0  9999", "line2": "2 35716  73.9926 199.4482 0088606  41.1107  27.4349 14.60081673875879"}}, "geometry": {"type": "Point", "coordinates": [-77.43578840931673, 73.90001900059336]}}, {"type": "Feature", "properties": {"norad_id": 35717, "name": "COSMOS 2251 DEB", "group": "cosmos-2251-debris", "lat": 30.188015827683042, "lon": -128.86594270649485, "alt_km": 726.4132244344937, "timestamp": "2025-12-10T11:33:53.780549+00:00", "meta": {"OBJECT_NAME": "COSMOS 2251 DEB", "OBJECT_ID": "1993-036AQN", "EPOCH": "2025-12-08T11:00:53.829504", "MEAN_MOTION": 14.38444389, "ECCENTRICITY": 0.00767393, "INCLINATION": 74.16, "RA_OF_ASC_NODE": 225.3267, "ARG_OF_PERICENTER": 86.192, "MEAN_ANOMALY": 274.8004, "EPHEMERIS_TYPE": 0, "CLASSIFICATION_TYPE": "U", "NORAD_CAT_ID": 35717, "ELEMENT_SET_NO": 999, "REV_AT_EPOCH": 74038, "BSTAR": 0.0017775827, "MEAN_MOTION_DOT": 5.593e-05, "MEAN_MOTION_DDOT": 0}, "tle": {"line1": "1 35717U 93036AQN 25342.45895636  .00005593  00000+0  17776-2 0  9997", "line2": "2 35717  74.1600 225.3267 0076739  86.1920 274.8004 14.38444389740383"}}, "geometry": {"type": "Point", "coordinates": [-128.86594270649485, 30.188015827683042]}}, {"type": "Feature", "properties": {"norad_id": 35718, "name": "COSMOS 2251 DEB", "group": "cosmos-2251-debris", "lat": -65.36531379931532, "lon": -7.0216630106058915, "alt_km": 669.4987987800578, "timestamp": "2025-12-10T11:33:53.780559+00:00", "meta": {"OBJECT_NAME": "COSMOS 2251 DEB", "OBJECT_ID": "1993-036AQP", "EPOCH": "2025-12-09T16:26:31.941888", "MEAN_MOTION": 14.68563709, "ECCENTRICITY": 0.001126, "INCLINATION": 74.0322, "RA_OF_ASC_NODE": 135.8815, "ARG_OF_PERICENTER": 184.534, "MEAN_ANOMALY": 175.573, "EPHEMERIS_TYPE": 0, "CLASSIFICATION_TYPE": "U", "NORAD_CAT_ID": 35718, "ELEMENT_SET_NO": 999, "REV_AT_EPOCH": 65795, "BSTAR": 0.0024435, "MEAN_MOTION_DOT": 0.00014198, "MEAN_MOTION_DDOT": 0}, "tle": {"line1": "1 35718U 93036AQP 25343.68509192  .00014198  00000+0  24435-2 0  9994", "line2": "2 35718  74.0322 135.8815 0011260 184.5340 175.5730 14.68563709657959"}}, "geometry": {"type": "Point", "coordinates": [-7.0216630106058915, -65.36531379931532]}}, {"type": "Feature", "properties": {"norad_id": 35721, "name": "COSMOS 2251 DEB", "group": "cosmos-2251-debris", "lat": -9.028852654802344, "lon": 4.518111786271957, "alt_km": 860.1304039675779, "timestamp": "2025-12-10T11:33:53.780569+00:00", "meta": {"OBJECT_NAME": "COSMOS 2251 DEB", "OBJECT_ID": "1993-036AQS", "EPOCH": "2025-12-09T19:36:39.465216", "MEAN_MOTION": 14.34317214, "ECCENTRICITY": 0.0146587, "INCLINATION": 73.9489, "RA_OF_ASC_NODE": 183.1196, "ARG_OF_PERICENTER": 330.1589, "MEAN_ANOMALY": 29.126, "EPHEMERIS_TYPE": 0, "CLASSIFICATION_TYPE": "U", "NORAD_CAT_ID": 35721, "ELEMENT_SET_NO": 999, "REV_AT_EPOCH": 57747, "BSTAR": 0.0018396, "MEAN_MOTION_DOT": 5.808e-05, "MEAN_MOTION_DDOT": 0}, "tle": {"line1": "1 35721U 93036AQS 25343.81712344  .00005808  00000+0  18396-2 0  9995", "line2": "2 35721  73.9489 183.1196 0146587 330.1589  29.1260 14.34317214577479"}}, "geometry": {"type": "Point", "coordinates": [4.518111786271957, -9.028852654802344]}}, {"type": "Feature", "properties": {"norad_id": 35724, "name": "COSMOS 2251 DEB", "group": "cosmos-2251-debris", "lat": -57.69240920406963, "lon": -79.94525871780301, "alt_km": 745.6225731883524, "timestamp": "2025-12-10T11:33:53.780579+00:00", "meta": {"OBJECT_NAME": "COSMOS 2251 DEB", "OBJECT_ID": "1993-036AQV", "EPOCH": "2025-12-08T21:58:40.520064", "MEAN_MOTION": 14.58181978, "ECCENTRICITY": 0.0058948, "INCLINATION": 74.032, "RA_OF_ASC_NODE": 309.9574, "ARG_OF_PERICENTER": 104.7412, "MEAN_ANOMALY": 256.0295, "EPHEMERIS_TYPE": 0, "CLASSIFICATION_TYPE": "U", "NORAD_CAT_ID": 35724, "ELEMENT_SET_NO": 999, "REV_AT_EPOCH": 87473, "BSTAR": 0.00038878, "MEAN_MOTION_DOT": 1.807e-05, "MEAN_MOTION_DDOT": 0}, "tle": {"line1": "1 35724U 93036AQV 25342.91574676  .00001807  00000+0  38878-3 0  9995", "line2": "2 35724  74.0320 309.9574 0058948 104.7412 256.0295 14.58181978874739"}}, "geometry": {"type": "Point", "coordinates": [-79.94525871780301, -57.69240920406963]}}]}